<!DOCTYPE html PUBLIC "-//W3C//DTD XHTML 1.0 Transitional//EN"
    "http://www.w3.org/TR/xhtml1/DTD/xhtml1-transitional.dtd">
<html xmlns="http://www.w3.org/1999/xhtml" xml:lang="en" lang="en">
<head>
<meta http-equiv="Content-Type" content="text/html; charset=iso-8859-1" />
<title>
Solar System Live Help: Asteroid and Comet Tracking
</title>
<link rel="stylesheet" href="../solar.css" type="text/css" />
<meta name="keywords" content="solar, system, live, help, orrery, orbits, asteroid, comet" />
<meta name="description" content="Solar System Live Help: Asteroid and Comet Tracking" />
<meta name="author" content="John Walker" />
<meta name="robots" content="index" />
</head>

<body>
<h1><img src="images/helplogo.png" height="64" width="64" align="middle" alt="" /> &nbsp; Solar System Live Help</h1>
<hr />
<h2>Asteroid and Comet Tracking</h2>

<p class="j">
You can plot the orbit and current position of an asteroid (minor
planet) or comet by pasting its orbital elements into the text box
provided for that purpose.  The orbital elements, which permit
calculation of the position of the object for a period of time
surrounding the <em>Epoch</em> for which they are computed, are entered in the form
currently published in the International
Astronomical Union (IAU) and Minor Planet Electronic
<a href="#IAUC"><cite>Circulars</cite></a>.  Further information on
these electronic publications, including subscription information, is
given at the bottom of this page.
</p>

<h3>Asteroids</h3>

<p class="j">
The first line in the text box is the name or provisional designation
of the object, and the lines that follow are the orbital elements as
published in the <cite>Circular</cite> regarding the object.  If your
system supports cut-and-paste, you can copy the elements directly from
the E-mail <cite>Circular</cite> and paste them into the
elements box.
</p>

<p class="j">
For example, here are the elements published in MPEC 1995-C12 of
February 6th, 1995 announcing the discovery of &ldquo;1995 CR&rdquo;, a
new extremely rare &ldquo;Aten-type&rdquo; asteroid which orbits the Sun
in less time than the Earth.  1995 CR, discovered on February 3, 1995
by R. Jedicke with the 0.9 metre Spacewatch telescope at Steward
Observatory on Kitt Peak, crosses the orbits of all four inner
planets.  Press the &ldquo;Update&rdquo; button below the elements to
plot this asteroid's position at the time of its discovery.
</p>

<form method="post" action="/cgi-bin/Solar">
<b>Orbital elements for asteroid or comet:</b>
<label><input type="checkbox" name="edump" value="-xe" checked="checked" /> Echo elements</label>
<br />
<input name="sys" type="hidden" value="-Si" />
<input name="orb" type="hidden" value="-b1" />
<input type="hidden" name="date" value="1" />
<input type="hidden" name="utc" value="1995/02/03 11:25:24" />
<input type="hidden" name="lat" value="31°50'" />
<input type="hidden" name="ns" value="North" />
<input type="hidden" name="lon" value="111°30'" />
<input type="hidden" name="ew" value="West" />
<textarea name="elements" class="elements" rows="7" cols="70">
1995 CR
Epoch 1995 Jan. 23.0 TT = JDT 2449740.5                 Marsden
M 278.01564              (2000.0)            P               Q
n   1.12812404     Peri.  322.49940     +0.57914789     +0.81494950
a   0.9138989      Node   342.85889     -0.72954994     +0.50656337
e   0.8733235      Incl.    4.10461     -0.36379197     +0.28151531
P   0.87           H    21.5          G   0.15
</textarea><br />
<center>
<input type="submit" value="Update" />
</center>
</form>

<p class="j">
On February 22, 1995, 1995 CR passed within 0.05 astronomical units of
the Earth, about 7.5 million kilometers: about 20 times the distance
of the Moon.  Note that we checked the &ldquo;Echo elements&rdquo; box above.
This causes <cite>Solar System Live</cite> to show the elements it obtained from
the text box immediately below the box, explaining what each value
means.  Press &ldquo;Update&rdquo; again, then scroll down to see the echoed
elements, if you're interested.
</p>

<h4>Recovered Asteroids and Revised Elements</h4>

<p class="j">
Elements for recovered asteroids (those re-observed after their
original discovery at a subsequent favourable apparition) and revised
elements based upon refinement of an orbit by subsequent observations
are published in a slightly different form, with an &ldquo;Id.&rdquo; line between
the object's name and the epoch of the elements.  <cite>Solar System Live</cite>
accepts this form as a well.
</p>

<p class="j">
Here are revised elements for &ldquo;1994 ES2&rdquo;, a <em>transneptunian</em> object
which orbits entirely outside the orbits of Neptune and Pluto with an
orbital period of more than 311 years.  These revised elements were
issued in MPEC 1995-E04 of March 1, 1995 which arrived as I was
writing the paragraphs above.
</p>

<p class="j">
I've pasted the elements into the box below; press the
&ldquo;Update&rdquo; below it to see the path of this far-flung
wanderer through the darkness. I've set the <a
href="timedate.html">time and date</a> to the time of the most recent
observation cited in the <cite>Circular</cite>, and the <a
href="site.html">observing site</a> to the latitude and longitude of
Mauna Kea, Hawaii, in the United States, where the 2.2 metre
University of Hawaii reflector was used to spot this 24th magnitude
object.
</p>

<form method="post" action="/cgi-bin/Solar">
<br />
<input name="sys" type="hidden" value="-So" />
<input name="orb" type="hidden" value="-b1" />
<input type="hidden" name="date" value="1" />
<input type="hidden" name="img" value="-k1" />
<input type="hidden" name="utc" value="1995/02/26 11:36:05" />
<input type="hidden" name="lat" value="19°50'" />
<input type="hidden" name="ns" value="North" />
<input type="hidden" name="lon" value="155°28'" />
<input type="hidden" name="ew" value="West" />
<textarea name="elements" class="elements" rows="8" cols="70">
1994 ES2
Id. Luu, Jewitt (1995 observations)
Epoch 1995 Mar. 24.0 TT = JDT 2449800.5                 Marsden
M 279.23038              (2000.0)            P               Q
n   0.00316620     Peri.   99.64713     -0.26952458     +0.96296183
a  45.9314859      Node   154.71270     -0.89054577     -0.24615282
e   0.1247314      Incl.    1.04784     -0.36644881     -0.11006049
P 311.29           H    7.5           G   0.15           U   6
</textarea><br />
<center>
<input type="submit" value="Update" />
</center>
</form>

<p class="j">
Consulting the last line of the <a href="ephemeris.html">ephemeris</a>, we
note that at the time of the observation, 1994 ES2 shone (if I may dare
to speak of a 24th magnitude object shining!) at an altitude of more than 72°
degrees in the pellucid skies with which Mauna Kea is blessed.
</p>

<h3>Comets</h3>

<p class="j">
Orbital elements for newly discovered and recovered comets are
reported in the IAU Circulars.  The format in which the elements are
given depends upon whether the comet is periodic (has a closed orbit
around the sun) or parabolic (a comet which appears from deep space
and leaves the solar system for good after its turn around the Sun, or
has such a long period that its trajectory isn't measurably different
from parabolic).
</p>

<h4>Periodic Comets</h4>

<p class="j">
Elements for periodic comets are (usually) published in the following
form, this example taken from IAU Circular No. 6037 of July 25,
1994, reporting the first reliable orbit determination for comet
McNaught-Hartley (1994n), discovered on July 6, 1994 by
M. Hartley with the 1.2 metre U.K. Schmidt telescope at Siding Spring
Australia.
</p>

<form method="post" action="/cgi-bin/Solar">
<input name="sys" type="hidden" value="-So" />
<input name="orb" type="hidden" value="-b0" />
<input type="hidden" name="date" value="1" />
<input type="hidden" name="img" value="-k0" />
<input type="hidden" name="utc" value="1994/7/5 16:07:09" />
<input type="hidden" name="lat" value="39°'" />
<input type="hidden" name="ns" value="South" />
<input type="hidden" name="lon" value="149°'" />
<input type="hidden" name="ew" value="East" />
<textarea name="elements" class="elements" rows="5" cols="70">
PERIODIC COMET McNAUGHT-HARTLEY (1994n)
     T = 1994 Nov. 11.202 TT          Peri. = 300.216
     e = 0.61969                      Node  =  38.118   2000.0
     q = 2.60969 AU                   Incl. =  17.655
       a =  6.86205 AU     n = 0.054831     P =  17.98 years
</textarea><br />
<center>
<input type="submit" value="Update" />
</center>
</form>

<p class="j">
Click the &ldquo;Update&rdquo; button above to see how this comet,
like many a periodic comet, meanders back and forth around the orbits
of Jupiter and Saturn, in this case with a period of 18 years.  If you
want something to bear your name until the end of time (or at least
until Jupiter or Saturn throw it out of the solar system or into one
of the planets), discovering a periodic comet is your best bet.
</p>

<p class="j">
While the IAU Circulars publish orbital elements for periodic comets
in the form given above, the Minor Planet Electronic Circulars report
elements of comets in the same form they use for asteroids, except the
&ldquo;M&rdquo; entry for mean anomaly is replaced by a
&ldquo;T&rdquo; entry giving perihelion date.  MPEC 1995-C11, issued
on February 3, 1995 reported the following elements for periodic comet
P/1989 T2 (Helin-Roman-Alu 1) as follows:
</p>

